{
    "links": {
        "self": "http://www.neowsapp.com/rest/v1/neo/3781444?api_key=iIulBulltgU6a56xZRHN4H3l9WmuAYTsLGpBGhQ2"
    },
    "id": "3781444",
    "neo_reference_id": "3781444",
    "name": "(2017 RE15)",
    "designation": "2017 RE15",
    "nasa_jpl_url": "http://ssd.jpl.nasa.gov/sbdb.cgi?sstr=3781444",
    "absolute_magnitude_h": 24.0,
    "estimated_diameter": {
        "kilometers": {
            "estimated_diameter_min": 0.0421264611,
            "estimated_diameter_max": 0.0941976306
        },
        "meters": {
            "estimated_diameter_min": 42.1264610556,
            "estimated_diameter_max": 94.1976305719
        },
        "miles": {
            "estimated_diameter_min": 0.0261761612,
            "estimated_diameter_max": 0.0585316759
        },
        "feet": {
            "estimated_diameter_min": 138.2101784897,
            "estimated_diameter_max": 309.0473542854
        }
    },
    "is_potentially_hazardous_asteroid": false,
    "close_approach_data": [
        {
            "close_approach_date": "2017-09-27",
            "close_approach_date_full": "2017-Sep-27 18:40",
            "epoch_date_close_approach": 1506537600000,
            "relative_velocity": {
                "kilometers_per_second": "7.3599160128",
                "kilometers_per_hour": "26495.6976461505",
                "miles_per_hour": "16463.3961290761"
            },
            "miss_distance": {
                "astronomical": "0.0923945516",
                "lunar": "35.9414805724",
                "kilometers": "13822028.118965092",
                "miles": "8588610.0139865896"
            },
            "orbiting_body": "Earth"
        },
        {
            "close_approach_date": "2018-02-12",
            "close_approach_date_full": "2018-Feb-12 21:58",
            "epoch_date_close_approach": 1518472680000,
            "relative_velocity": {
                "kilometers_per_second": "6.2096462731",
                "kilometers_per_hour": "22354.7265831535",
                "miles_per_hour": "13890.3577482933"
            },
            "miss_distance": {
                "astronomical": "0.3159643356",
                "lunar": "122.9101265484",
                "kilometers": "47267591.601725172",
                "miles": "29370719.4829524936"
            },
            "orbiting_body": "Earth"
        }
    ],
    "orbital_data": {
        "orbit_id": "2",
        "orbit_determination_date": "2017-09-20 06:19:31",
        "first_observation_date": "2017-09-14",
        "last_observation_date": "2017-09-20",
        "data_arc_in_days": 6,
        "observations_used": 17,
        "orbit_uncertainty": "9",
        "minimum_orbit_intersection": ".0531678",
        "jupiter_tisserand_invariant": "4.838",
        "epoch_osculation": "2458011.5",
        "eccentricity": ".3276140802080153",
        "semi_major_axis": "1.33593982007072",
        "inclination": "9.852585311127051",
        "ascending_node_longitude": "343.5636873624724",
        "orbital_period": "563.9995653854645",
        "perihelion_distance": ".8982671247049893",
        "perihelion_argument": "76.69235632882801",
        "aphelion_distance": "1.77361251543645",
        "perihelion_time": "2458073.218001492978",
        "mean_anomaly": "320.6055006047976",
        "mean_motion": ".6382983642087714",
        "equinox": "J2000",
        "orbit_class": {
            "orbit_class_type": "APO",
            "orbit_class_description": "Near-Earth asteroid orbits which cross the Earth’s orbit similar to that of 1862 Apollo",
            "orbit_class_range": "a (semi-major axis) > 1.0 AU; q (perihelion) < 1.017 AU"
        }
    },
    "is_sentry_object": false
}